{
    "links": {
        "self": "http://www.neowsapp.com/rest/v1/neo/3560197?api_key=iIulBulltgU6a56xZRHN4H3l9WmuAYTsLGpBGhQ2"
    },
    "id": "3560197",
    "neo_reference_id": "3560197",
    "name": "(2011 FQ17)",
    "designation": "2011 FQ17",
    "nasa_jpl_url": "http://ssd.jpl.nasa.gov/sbdb.cgi?sstr=3560197",
    "absolute_magnitude_h": 24.2,
    "estimated_diameter": {
        "kilometers": {
            "estimated_diameter_min": 0.0384197891,
            "estimated_diameter_max": 0.0859092601
        },
        "meters": {
            "estimated_diameter_min": 38.4197891064,
            "estimated_diameter_max": 85.9092601232
        },
        "miles": {
            "estimated_diameter_min": 0.0238729428,
            "estimated_diameter_max": 0.0533815229
        },
        "feet": {
            "estimated_diameter_min": 126.0491808919,
            "estimated_diameter_max": 281.8545369825
        }
    },
    "is_potentially_hazardous_asteroid": false,
    "close_approach_data": [
        {
            "close_approach_date": "2011-03-26",
            "close_approach_date_full": "2011-Mar-26 20:37",
            "epoch_date_close_approach": 1301171820000,
            "relative_velocity": {
                "kilometers_per_second": "11.1719823903",
                "kilometers_per_hour": "40219.1366051383",
                "miles_per_hour": "24990.6074088983"
            },
            "miss_distance": {
                "astronomical": "0.0273934946",
                "lunar": "10.6560693994",
                "kilometers": "4098008.444016502",
                "miles": "2546384.3696996476"
            },
            "orbiting_body": "Earth"
        }
    ],
    "orbital_data": {
        "orbit_id": "8",
        "orbit_determination_date": "2017-04-06 08:54:00",
        "first_observation_date": "2011-03-28",
        "last_observation_date": "2011-04-04",
        "data_arc_in_days": 7,
        "observations_used": 33,
        "orbit_uncertainty": "8",
        "minimum_orbit_intersection": ".0265185",
        "jupiter_tisserand_invariant": "3.756",
        "epoch_osculation": "2455651.5",
        "eccentricity": ".4764538081254283",
        "semi_major_axis": "1.903845772342557",
        "inclination": "15.86576038516218",
        "ascending_node_longitude": "8.441923593436471",
        "orbital_period": "959.5024163541052",
        "perihelion_distance": ".9967512040264482",
        "perihelion_argument": "155.1946369542704",
        "aphelion_distance": "2.810940340658665",
        "perihelion_time": "2455628.525304538470",
        "mean_anomaly": "8.61997867350698",
        "mean_motion": ".3751944694083414",
        "equinox": "J2000",
        "orbit_class": {
            "orbit_class_type": "APO",
            "orbit_class_description": "Near-Earth asteroid orbits which cross the Earth’s orbit similar to that of 1862 Apollo",
            "orbit_class_range": "a (semi-major axis) > 1.0 AU; q (perihelion) < 1.017 AU"
        }
    },
    "is_sentry_object": false
}